CTC1_L_00664007-03
1 10062U 22124AJ  26075.70040509  .00000000  00000+0  00000-0 0  9994
2 10062  50.0000 180.0000 0000000   0.0000 144.0000  2.02645322    11
CTC1_L_00664007-04
1 10063U 26807OX  26075.70040509  .00000000  00000+0  00000-0 0  9997
2 10063  50.0000 180.0000 0000000   0.0000 180.0000  2.02645322    12
CTC1_L_00664007-05
1 10064U 24075PW  26075.70040509  .00000000  00000+0  00000-0 0  9993
2 10064  50.0000 180.0000 0000000   0.0000 216.0000  2.02645322    13
CTC1_L_00664007-06
1 10065U 24233KK  26075.70040509  .00000000  00000+0  00000-0 0  9990
2 10065  50.0000 180.0000 0000000   0.0000 252.0000  2.02645322    14
CTC1_L_00664007-07
1 10066U 23836IN  26075.70040509  .00000000  00000+0  00000-0 0  9999
2 10066  50.0000 180.0000 0000000   0.0000 288.0000  2.02645322    14
CTC1_L_00664007-08
1 10067U 24026FP  26075.70040509  .00000000  00000+0  00000-0 0  9992
2 10067  50.0000 180.0000 0000000   0.0000 324.0000  2.02645322    16
CTC1_L_00664007-09
1 10068U 26077VM  26075.70040509  .00000000  00000+0  00000-0 0  9991
2 10068  50.0000 180.0000 0000000   0.0000   0.0000  2.02645322    18
CTC1_L_00664007-10
1 10069U 23187KJ  26075.70040509  .00000000  00000+0  00000-0 0  9991
2 10069  50.0000 180.0000 0000000   0.0000  36.0000  2.02645322    18
CTC1_L_00664008-01
1 10070U 26712PG  26075.70040509  .00000000  00000+0  00000-0 0  9990
2 10070  50.0000 210.0000 0000000   0.0000  84.0000  2.02645322    17
CTC1_L_00664008-02
1 10071U 23236MJ  26075.70040509  .00000000  00000+0  00000-0 0  9999
2 10071  50.0000 210.0000 0000000   0.0000 120.0000  2.02645322    19
CTC1_L_00664008-03
1 10072U 26992UT  26075.70040509  .00000000  00000+0  00000-0 0  9992
2 10072  50.0000 210.0000 0000000   0.0000 156.0000  2.02645322    19
CTC1_L_00664008-04
1 10073U 22412MO  26075.70040509  .00000000  00000+0  00000-0 0  9996
2 10073  50.0000 210.0000 0000000   0.0000 192.0000  2.02645322    10
CTC1_L_00664008-05
1 10074U 26898DN  26075.70040509  .00000000  00000+0  00000-0 0  9999
2 10074  50.0000 210.0000 0000000   0.0000 228.0000  2.02645322    11
CTC1_L_00664008-06
1 10075U 22282PB  26075.70040509  .00000000  00000+0  00000-0 0  9993
2 10075  50.0000 210.0000 0000000   0.0000 264.0000  2.02645322    12
CTC1_L_00664008-07
1 10076U 22535JT  26075.70040509  .00000000  00000+0  00000-0 0  9995
2 10076  50.0000 210.0000 0000000   0.0000 300.0000  2.02645322    14
CTC1_L_00664008-08
1 10077U 25270ZN  26075.70040509  .00000000  00000+0  00000-0 0  9995
2 10077  50.0000 210.0000 0000000   0.0000 336.0000  2.02645322    14
CTC1_L_00664008-09
1 10078U 23716QH  26075.70040509  .00000000  00000+0  00000-0 0  9999
2 10078  50.0000 210.0000 0000000   0.0000  12.0000  2.02645322    16
CTC1_L_00664008-10
1 10079U 24613TJ  26075.70040509  .00000000  00000+0  00000-0 0  9997
2 10079  50.0000 210.0000 0000000   0.0000  48.0000  2.02645322    16
CTC1_L_00664009-01
1 10080U 22150UQ  26075.70040509  .00000000  00000+0  00000-0 0  9993
2 10080  50.0000 240.0000 0000000   0.0000  96.0000  2.02645322    14
CTC1_L_00664009-02
1 10081U 22028SJ  26075.70040509  .00000000  00000+0  00000-0 0  9998
2 10081  50.0000 240.0000 0000000   0.0000 132.0000  2.02645322    16
CTC1_L_00664009-03
1 10082U 26571PT  26075.70040509  .00000000  00000+0  00000-0 0  9996
2 10082  50.0000 240.0000 0000000   0.0000 168.0000  2.02645322    16
CTC1_L_00664009-04
1 10083U 22192HT  26075.70040509  .00000000  00000+0  00000-0 0  9992
2 10083  50.0000 240.0000 0000000   0.0000 204.0000  2.02645322    18
CTC1_L_00664009-05
1 10084U 25756PN  26075.70040509  .00000000  00000+0  00000-0 0  9992
2 10084  50.0000 240.0000 0000000   0.0000 240.0000  2.02645322    19
CTC1_L_00664009-06
1 10085U 22864IU  26075.70040509  .00000000  00000+0  00000-0 0  9990
2 10085  50.0000 240.0000 0000000   0.0000 276.0000  2.02645322    19
CTC1_L_00664009-07
1 10086U 24894YX  26075.70040509  .00000000  00000+0  00000-0 0  9996
2 10086  50.0000 240.0000 0000000   0.0000 312.0000  2.02645322    11
CTC1_L_00664009-08
1 10087U 23658IE  26075.70040509  .00000000  00000+0  00000-0 0  9994
2 10087  50.0000 240.0000 0000000   0.0000 348.0000  2.02645322    11
CTC1_L_00664009-09
1 10088U 22712ZO  26075.70040509  .00000000  00000+0  00000-0 0  9995
2 10088  50.0000 240.0000 0000000   0.0000  24.0000  2.02645322    13
CTC1_L_00664009-10
1 10089U 22268UN  26075.70040509  .00000000  00000+0  00000-0 0  9992
2 10089  50.0000 240.0000 0000000   0.0000  60.0000  2.02645322    14
CTC1_L_00664010-01
1 10090U 24034XW  26075.70040509  .00000000  00000+0  00000-0 0  9997
2 10090  50.0000 270.0000 0000000   0.0000 108.0000  2.02645322    12
CTC1_L_00664010-02
1 10091U 22456HB  26075.70040509  .00000000  00000+0  00000-0 0  9994
2 10091  50.0000 270.0000 0000000   0.0000 144.0000  2.02645322    13
CTC1_L_00664010-03
1 10092U 25523YS  26075.70040509  .00000000  00000+0  00000-0 0  9993
2 10092  50.0000 270.0000 0000000   0.0000 180.0000  2.02645322    14
CTC1_L_00664010-04
1 10093U 26795BX  26075.70040509  .00000000  00000+0  00000-0 0  9996
2 10093  50.0000 270.0000 0000000   0.0000 216.0000  2.02645322    15
CTC1_L_00664010-05
1 10094U 26172ZP  26075.70040509  .00000000  00000+0  00000-0 0  9996
2 10094  50.0000 270.0000 0000000   0.0000 252.0000  2.02645322    16
CTC1_L_00664010-06
1 10095U 25565QL  26075.70040509  .00000000  00000+0  00000-0 0  9992
2 10095  50.0000 270.0000 0000000   0.0000 288.0000  2.02645322    16
CTC1_L_00664010-07
1 10096U 25459YL  26075.70040509  .00000000  00000+0  00000-0 0  9995
2 10096  50.0000 270.0000 0000000   0.0000 324.0000  2.02645322    18
CTC1_L_00664010-08
1 10097U 22286QP  26075.70040509  .00000000  00000+0  00000-0 0  9991
2 10097  50.0000 270.0000 0000000   0.0000   0.0000  2.02645322    10
CTC1_L_00664010-09
1 10098U 26742VT  26075.70040509  .00000000  00000+0  00000-0 0  9993
2 10098  50.0000 270.0000 0000000   0.0000  36.0000  2.02645322    10
CTC1_L_00664010-10
1 10099U 25497LZ  26075.70040509  .00000000  00000+0  00000-0 0  9990
2 10099  50.0000 270.0000 0000000   0.0000  72.0000  2.02645322    11
CTC1_L_00664011-01
1 10100U 26281AX  26075.70040509  .00000000  00000+0  00000-0 0  9995
2 10100  50.0000 300.0000 0000000   0.0000 120.0000  2.02645322    12
CTC1_L_00664011-02
1 10101U 25323KY  26075.70040509  .00000000  00000+0  00000-0 0  9992
2 10101  50.0000 300.0000 0000000   0.0000 156.0000  2.02645322    12
CTC1_L_00664011-03
1 10102U 23100YP  26075.70040509  .00000000  00000+0  00000-0 0  9994
2 10102  50.0000 300.0000 0000000   0.0000 192.0000  2.02645322    13
CTC1_L_00664011-04
1 10103U 26862TT  26075.70040509  .00000000  00000+0  00000-0 0  9993
2 10103  50.0000 300.0000 0000000   0.0000 228.0000  2.02645322    14
CTC1_L_00664011-05
1 10104U 26080TU  26075.70040509  .00000000  00000+0  00000-0 0  9996
2 10104  50.0000 300.0000 0000000   0.0000 264.0000  2.02645322    15
CTC1_L_00664011-06
1 10105U 23215OI  26075.70040509  .00000000  00000+0  00000-0 0  9994
2 10105  50.0000 300.0000 0000000   0.0000 300.0000  2.02645322    17
CTC1_L_00664011-07
1 10106U 23390JD  26075.70040509  .00000000  00000+0  00000-0 0  9999
2 10106  50.0000 300.0000 0000000   0.0000 336.0000  2.02645322    17
CTC1_L_00664011-08
1 10107U 26602IA  26075.70040509  .00000000  00000+0  00000-0 0  9999
2 10107  50.0000 300.0000 0000000   0.0000  12.0000  2.02645322    19
CTC1_L_00664011-09
1 10108U 25668BJ  26075.70040509  .00000000  00000+0  00000-0 0  9991
2 10108  50.0000 300.0000 0000000   0.0000  48.0000  2.02645322    19
CTC1_L_00664011-10
1 10109U 25246CC  26075.70040509  .00000000  00000+0  00000-0 0  9994
2 10109  50.0000 300.0000 0000000   0.0000  84.0000  2.02645322    10
CTC1_L_00664012-01
1 10110U 25535TM  26075.70040509  .00000000  00000+0  00000-0 0  9997
2 10110  50.0000 330.0000 0000000   0.0000 132.0000  2.02645322    19
CTC1_L_00664012-02
1 10111U 23620EG  26075.70040509  .00000000  00000+0  00000-0 0  9991
2 10111  50.0000 330.0000 0000000   0.0000 168.0000  2.02645322    19
CTC1_L_00664012-03
1 10112U 22925RR  26075.70040509  .00000000  00000+0  00000-0 0  9999
2 10112  50.0000 330.0000 0000000   0.0000 204.0000  2.02645322    11
CTC1_L_00664012-04
1 10113U 24218AM  26075.70040509  .00000000  00000+0  00000-0 0  9997
2 10113  50.0000 330.0000 0000000   0.0000 240.0000  2.02645322    12
CTC1_L_00664012-05
1 10114U 25643IB  26075.70040509  .00000000  00000+0  00000-0 0  9991
2 10114  50.0000 330.0000 0000000   0.0000 276.0000  2.02645322    12
CTC1_L_00664012-06
1 10115U 22708SM  26075.70040509  .00000000  00000+0  00000-0 0  9991
2 10115  50.0000 330.0000 0000000   0.0000 312.0000  2.02645322    14
CTC1_L_00664012-07
1 10116U 23732GD  26075.70040509  .00000000  00000+0  00000-0 0  9990
2 10116  50.0000 330.0000 0000000   0.0000 348.0000  2.02645322    14
CTC1_L_00664012-08
1 10117U 22203HQ  26075.70040509  .00000000  00000+0  00000-0 0  9993
2 10117  50.0000 330.0000 0000000   0.0000  24.0000  2.02645322    16
CTC1_L_00664012-09
1 10118U 24982EP  26075.70040509  .00000000  00000+0  00000-0 0  9990
2 10118  50.0000 330.0000 0000000   0.0000  60.0000  2.02645322    17
CTC1_L_00664012-10
1 10119U 23899IH  26075.70040509  .00000000  00000+0  00000-0 0  9997
2 10119  50.0000 330.0000 0000000   0.0000  96.0000  2.02645322    17
